OBJECT C                
1 57582U 23117C   25043.17980692  .00011121  00000+0  47629-3 0  9993
2 57582  97.4586 118.7565 0009635 169.4040 190.7402 15.22913012 83626
